H1 CPF 01  gfz 2022 11 30 01  8341 tandemx   
H2 1003001  6202 36605    2022 11 30 00 59 42 2022 12 05 00 00 42   120 1 1  0 0 0
H9
10 0 59917  38862.000000  0      30741.630   2545935.855   6390116.649
10 0 59917  38982.000000  0     354904.635   1724147.803   6649064.560
10 0 59917  39102.000000  0     658182.217    866784.270   6791170.419
10 0 59917  39222.000000  0     934796.603    -10777.116   6813952.928
10 0 59917  39342.000000  0    1179707.656   -892714.807   6717013.409
10 0 59917  39462.000000  0    1388704.357  -1763048.336   6502043.198
10 0 59917  39582.000000  0    1558477.481  -2605927.387   6172796.342
10 0 59917  39702.000000  0    1686672.247  -3405921.712   5735028.380
10 0 59917  39822.000000  0    1771919.729  -4148306.440   5196400.488
10 0 59917  39942.000000  0    1813847.183  -4819336.224   4566350.476
10 0 59917  40062.000000  0    1813067.839  -5406505.956   3855934.153
10 0 59917  40182.000000  0    1771149.295  -5898793.894   3077634.517
10 0 59917  40302.000000  0    1690559.525  -6286876.984   2245141.719
10 0 59917  40422.000000  0    1574594.001  -6563315.447   1373110.838
10 0 59917  40542.000000  0    1427284.759  -6722703.565    476899.789
10 0 59917  40662.000000  0    1253292.795  -6761781.041   -427708.119
10 0 59917  40782.000000  0    1057785.876  -6679502.517  -1324792.662
10 0 59917  40902.000000  0     846305.977  -6477057.950  -2198587.186
10 0 59917  41022.000000  0     624630.330  -6157848.219  -3033762.009
10 0 59917  41142.000000  0     398630.722  -5727418.571  -3815697.575
10 0 59917  41262.000000  0     174132.681  -5193350.364  -4530741.932
10 0 59917  41382.000000  0     -43221.768  -4565114.121  -5166445.927
10 0 59917  41502.000000  0    -248103.846  -3853890.085  -5711773.212
10 0 59917  41622.000000  0    -435617.707  -3072359.440  -6157282.758
10 0 59917  41742.000000  0    -601407.516  -2234471.617  -6495281.182
10 0 59917  41862.000000  0    -741750.422  -1355192.498  -6719944.017
10 0 59917  41982.000000  0    -853633.861   -450238.694  -6827406.065
10 0 59917  42102.000000  0    -934815.839    464199.546  -6815820.731
10 0 59917  42222.000000  0    -983867.578   1371740.978  -6685387.084
10 0 59917  42342.000000  0   -1000198.194   2256099.167  -6438346.790
10 0 59917  42462.000000  0    -984060.881   3101367.368  -6078950.318
10 0 59917  42582.000000  0    -936540.537   3892300.956  -5613392.942
10 0 59917  42702.000000  0    -859522.892   4614591.458  -5049718.113
10 0 59917  42822.000000  0    -755645.611   5255128.469  -4397690.409
10 0 59917  42942.000000  0    -628232.364   5802244.864  -3668636.695
10 0 59917  43062.000000  0    -481210.317   6245938.719  -2875257.544
10 0 59917  43182.000000  0    -319012.589   6578067.791  -2031412.155
10 0 59917  43302.000000  0    -146467.993   6792511.788  -1151878.330
10 0 59917  43422.000000  0      31319.743   6885297.119   -252092.113
10 0 59917  43542.000000  0     209100.790   6854680.514    652128.059
10 0 59917  43662.000000  0     381612.484   6701188.627   1544867.547
10 0 59917  43782.000000  0     543712.821   6427610.677   2410405.285
10 0 59917  43902.000000  0     690510.286   6038944.653   3233498.449
10 0 59917  44022.000000  0     817487.693   5542301.226   3999657.416
10 0 59917  44142.000000  0     920619.123   4946767.816   4695405.868
10 0 59917  44262.000000  0     996472.340   4263230.084   5308523.884
10 0 59917  44382.000000  0    1042297.328   3504160.703   5828257.550
10 0 59917  44502.000000  0    1056099.965   2683384.488   6245503.383
10 0 59917  44622.000000  0    1036696.457   1815819.689   6552962.755
10 0 59917  44742.000000  0     983749.435    917202.023   6745263.811
10 0 59917  44862.000000  0     897784.906      3796.835   6819048.838
10 0 59917  44982.000000  0     780189.670   -907893.998   6773029.408
10 0 59917  45102.000000  0     633188.888  -1801430.121   6608008.762
10 0 59917  45222.000000  0     459804.096  -2660728.988   6326868.864
10 0 59917  45342.000000  0     263792.389  -3470357.002   5934523.155
10 0 59917  45462.000000  0      49568.264  -4215807.951   5437832.860
10 0 59917  45582.000000  0    -177890.078  -4883764.674   4845493.331
10 0 59917  45702.000000  0    -413148.974  -5462343.726   4167890.219
10 0 59917  45822.000000  0    -650441.612  -5941317.730   3416921.892
10 0 59917  45942.000000  0    -883801.073  -6312305.889   2605791.622
10 0 59917  46062.000000  0   -1107199.750  -6568929.952   1748774.305
10 0 59917  46182.000000  0   -1314692.669  -6706933.108    860962.433
10 0 59917  46302.000000  0   -1500563.095  -6724257.065    -42007.591
10 0 59917  46422.000000  0   -1659462.819  -6621072.826   -944240.079
10 0 59917  46542.000000  0   -1786545.110  -6399766.871  -1829868.587
10 0 59917  46662.000000  0   -1877587.460  -6064883.486  -2683342.539
10 0 59917  46782.000000  0   -1929101.259  -5623024.480  -3489706.515
10 0 59917  46902.000000  0   -1938425.169  -5082708.304  -4234865.603
10 0 59917  47022.000000  0   -1903799.827  -4454193.663  -4905830.346
10 0 59917  47142.000000  0   -1824422.900  -3749273.910  -5490937.491
10 0 59917  47262.000000  0   -1700483.762  -2981047.351  -5980044.539
10 0 59917  47382.000000  0   -1533177.031  -2163667.767  -6364695.949
10 0 59917  47502.000000  0   -1324694.847  -1312080.189  -6638257.756
10 0 59917  47622.000000  0   -1078199.200   -441748.551  -6796020.516
10 0 59917  47742.000000  0    -797774.734    431621.075  -6835271.322
10 0 59917  47862.000000  0    -488361.481   1292357.054  -6755334.769
10 0 59917  47982.000000  0    -155669.956   2125095.920  -6557583.083
10 0 59917  48102.000000  0     193920.178   2915049.607  -6245416.175
10 0 59917  48222.000000  0     553478.972   3648264.755  -5824211.155
10 0 59917  48342.000000  0     915659.518   4311868.035  -5301238.164
10 0 59917  48462.000000  0    1272842.872   4894293.894  -4685546.480
10 0 59917  48582.000000  0    1617293.761   5385492.919  -3987819.487
10 0 59917  48702.000000  0    1941323.712   5777114.078  -3220198.352
10 0 59917  48822.000000  0    2237457.850   6062657.351  -2396078.253
10 0 59917  48942.000000  0    2498602.381   6237593.858  -1529878.591
10 0 59917  49062.000000  0    2718208.324   6299448.732   -636789.890
10 0 59917  49182.000000  0    2890426.958   6247842.900    267497.276
10 0 59917  49302.000000  0    3010252.855   6084492.511   1167074.491
10 0 59917  49422.000000  0    3073650.960   5813167.074   2046102.963
10 0 59917  49542.000000  0    3077664.313   5439606.477   2889100.869
10 0 59917  49662.000000  0    3020499.941   4971398.341   3681224.025
10 0 59917  49782.000000  0    2901591.106   4417819.521   4408533.414
10 0 59917  49902.000000  0    2721632.251   3789645.172   5058246.035
10 0 59917  50022.000000  0    2482585.507   3098928.849   5618958.967
10 0 59917  50142.000000  0    2187663.480   2358764.339   6080844.608
10 0 59917  50262.000000  0    1841286.999   1583032.621   6435818.942
10 0 59917  50382.000000  0    1449016.931    786136.500   6677677.621
10 0 59917  50502.000000  0    1017462.827    -17268.599   6802196.951
10 0 59917  50622.000000  0     554170.911   -812542.728   6807203.559
10 0 59917  50742.000000  0      67491.839  -1585328.520   6692611.214
10 0 59917  50862.000000  0    -433570.077  -2321810.300   6460421.811
10 0 59917  50982.000000  0    -939523.270  -3008961.567   6114691.721
10 0 59917  51102.000000  0   -1440566.492  -3634775.851   5661463.390
10 0 59917  51222.000000  0   -1926776.285  -4188478.347   5108666.628
10 0 59917  51342.000000  0   -2388303.992  -4660716.998   4465988.132
10 0 59917  51462.000000  0   -2815577.541  -5043728.450   3744707.477
10 0 59917  51582.000000  0   -3199501.826  -5331473.689   2957500.865
10 0 59917  51702.000000  0   -3531652.344  -5519739.060   2118217.534
10 0 59917  51822.000000  0   -3804459.069  -5606202.187   1241633.731
10 0 59917  51942.000000  0   -4011376.387  -5590460.398    343187.191
10 0 59917  52062.000000  0   -4147034.156  -5474020.343   -561302.013
10 0 59917  52182.000000  0   -4207366.106  -5260249.231  -1455919.085
10 0 59917  52302.000000  0   -4189711.478  -4954287.523  -2324943.990
10 0 59917  52422.000000  0   -4092887.507  -4562925.837  -3153135.097
10 0 59917  52542.000000  0   -3917231.091  -4094450.410  -3926000.575
10 0 59917  52662.000000  0   -3664609.472  -3558462.169  -4630051.978
10 0 59917  52782.000000  0   -3338400.792  -2965674.290  -5253036.265
10 0 59917  52902.000000  0   -2943445.037  -2327692.662  -5784142.068
10 0 59917  53022.000000  0   -2485967.653  -1656785.461  -6214177.623
10 0 59917  53142.000000  0   -1973477.016   -965645.884  -6535719.585
10 0 59917  53262.000000  0   -1414637.726   -267152.745  -6743229.314
10 0 59917  53382.000000  0    -819124.115    425865.553  -6833136.717
10 0 59917  53502.000000  0    -197455.733   1100860.399  -6803894.992
10 0 59917  53622.000000  0     439184.056   1745784.290  -6656004.058
10 0 59917  53742.000000  0    1079143.171   2349300.179  -6392004.819
10 0 59917  53862.000000  0    1710510.245   2900977.959  -6016441.122
10 0 59917  53982.000000  0    2321331.788   3391473.914  -5535789.404
10 0 59917  54102.000000  0    2899835.481   3812689.633  -4958357.077
10 0 59917  54222.000000  0    3434655.640   4157909.626  -4294151.004
10 0 59917  54342.000000  0    3915057.965   4421914.849  -3554714.953
10 0 59917  54462.000000  0    4331158.536   4601068.458  -2752937.299
10 0 59917  54582.000000  0    4674131.173   4693370.893  -1902830.648
10 0 59917  54702.000000  0    4936398.667   4698483.549  -1019289.105
10 0 59917  54822.000000  0    5111803.438   4617718.908   -117824.210
10 0 59917  54942.000000  0    5195749.955   4453996.948    785712.976
10 0 59917  55062.000000  0    5185318.040   4211769.975   1675417.166
10 0 59917  55182.000000  0    5079344.736   3896916.202   2535617.494
10 0 59917  55302.000000  0    4878469.325   3516603.527   3351163.338
99
